ADRAS-J                 
1 58992U 24034A   24207.14708779  .00006008  00000+0  55482-3 0  9994
2 58992  98.2146 181.9042 0041704 284.3500  75.3090 14.94360621 23531
